NORAD_CAT_ID,OBJECT_NAME,OBJECT_TYPE,EPOCH,MEAN_MOTION,ECCENTRICITY,INCLINATION,RA_OF_ASC_NODE,ARG_OF_PERICENTER,MEAN_ANOMALY,BSTAR,MEAN_MOTION_DOT,MEAN_MOTION_DDOT,TLE_LINE0,TLE_LINE1,TLE_LINE2,SEMIMAJOR_AXIS,PERIOD,APOGEE,PERIGEE,DECAYED
56470.0,STARLINK-5523,PAYLOAD,2023-10-21 14:15:07,14.98337371,0.0003176,69.9975,158.4269,270.684,89.3955,-7.1841e-05,-9.5e-06,0.0,0 STARLINK-5523,1 56470U 23064Y   23294.59383956 -.00000950  00000-0 -71841-4 0  9996,2 56470  69.9975 158.4269 0003176 270.6840  89.3955 14.98337371 25404,6950.17,96.107,574.242,569.828,0.0
56470.0,STARLINK-5523,PAYLOAD,2023-10-21 20:39:39,14.98351931,0.0003005,69.9982,157.7521,278.0228,82.059,-0.00023747,-2.927e-05,0.0,0 STARLINK-5523,1 56470U 23064Y   23294.86087604 -.00002927  00000-0 -23747-3 0  9994,2 56470  69.9982 157.7521 0003005 278.0228  82.0590 14.98351931 25805,6950.125,96.106,574.079,569.902,0.0
56470.0,STARLINK-5523,PAYLOAD,2023-10-21 22:15:47,14.98369321,0.0002662,69.9992,157.5847,268.8838,91.2016,-0.00058315,-7.051e-05,0.0,0 STARLINK-5523,1 56470U 23064Y   23294.92763567 -.00007051  00000-0 -58315-3 0  9992,2 56470  69.9992 157.5847 0002662 268.8838  91.2016 14.98369321 25455,6950.071,96.104,573.786,570.086,0.0
56470.0,STARLINK-5523,PAYLOAD,2023-10-21 23:51:55,14.98384662,0.0002762,69.9991,157.4162,275.6113,84.4731,-0.00068663,-8.288e-05,0.0,0 STARLINK-5523,1 56470U 23064Y   23294.99438884 -.00008288  00000-0 -68663-3 0  9990,2 56470  69.9991 157.4162 0002762 275.6113  84.4731 14.98384662 25820,6950.024,96.103,573.808,569.969,0.0
56470.0,STARLINK-5523,PAYLOAD,2023-10-22 07:52:35,14.98372466,0.0002791,69.9993,156.5745,271.4422,88.6417,-0.00070022,-8.447e-05,0.0,0 STARLINK-5523,1 56470U 23064Y   23295.32818780 -.00008447  00000-0 -70022-3 0  9994,2 56470  69.9993 156.5745 0002791 271.4422  88.6417 14.98372466 25879,6950.062,96.104,573.866,569.987,0.0
56470.0,STARLINK-5523,PAYLOAD,2023-10-22 20:41:39,14.98350432,0.0002558,69.9996,155.2273,264.7334,95.3533,0.00031799,3.705e-05,0.0,0 STARLINK-5523,1 56470U 23064Y   23295.86226211  .00003705  00000-0  31799-3 0  9993,2 56470  69.9996 155.2273 0002558 264.7334  95.3533 14.98350432 25954,6950.13,96.106,573.773,570.217,0.0
56470.0,STARLINK-5523,PAYLOAD,2023-10-22 22:17:50,14.98306687,0.0002589,69.9996,155.0591,263.121,96.9655,-0.00018812,-2.335e-05,0.0,0 STARLINK-5523,1 56470U 23064Y   23295.92906067 -.00002335  00000-0 -18812-3 0  9995,2 56470  69.9996 155.0591 0002589 263.1210  96.9655 14.98306687 25602,6950.265,96.108,573.929,570.331,0.0
56470.0,STARLINK-5523,PAYLOAD,2023-10-22 23:53:58,14.98315925,0.000268,69.9995,154.8908,262.4623,97.6232,-8.5153e-05,-1.108e-05,0.0,0 STARLINK-5523,1 56470U 23064Y   23295.99581288 -.00001108  00000-0 -85153-4 0  9996,2 56470  69.9995 154.8908 0002680 262.4623  97.6232 14.98315925 25976,6950.236,96.108,573.964,570.239,0.0
56470.0,STARLINK-5523,PAYLOAD,2023-10-23 20:43:34,14.98439056,0.0003313,69.999,152.7031,261.1973,98.8811,0.0011644,0.00013867,0.0,0 STARLINK-5523,1 56470U 23064Y   23296.86359144  .00013867  00000-0  11644-2 0  9992,2 56470  69.9990 152.7031 0003313 261.1973  98.8811 14.98439056 26107,6949.856,96.1,574.023,569.418,0.0
56470.0,STARLINK-5523,PAYLOAD,2023-10-23 23:56:04,14.98249561,0.0002504,69.9989,152.367,269.1468,90.9404,-0.00096463,-0.0001156,0.0,0 STARLINK-5523,1 56470U 23064Y   23296.99727771 -.00011560  00000-0 -96463-3 0  9994,2 56470  69.9989 152.3670 0002504 269.1468  90.9404 14.98249561 26121,6950.442,96.112,574.047,570.566,0.0
56470.0,STARLINK-5523,PAYLOAD,2023-10-24 12:45:02,14.9832555,0.000311,69.9986,151.0209,265.8242,94.2561,0.00017045,1.941e-05,0.0,0 STARLINK-5523,1 56470U 23064Y   23297.53128292  .00001941  00000-0  17045-3 0  9997,2 56470  69.9986 151.0209 0003110 265.8242  94.2561 14.98325550 26202,6950.207,96.107,574.233,569.91,0.0
56470.0,STARLINK-5523,PAYLOAD,2023-10-24 14:21:10,14.98333874,0.0003519,69.999,150.8516,272.221,87.8546,0.00029905,3.477e-05,0.0,0 STARLINK-5523,1 56470U 23064Y   23297.59803464  .00003477  00000-0  29905-3 0  9998,2 56470  69.9990 150.8516 0003519 272.2210  87.8546 14.98333874 25854,6950.181,96.107,574.492,569.6,0.0
56470.0,STARLINK-5523,PAYLOAD,2023-10-25 14:23:11,14.98381116,0.0002621,69.9994,148.3264,272.4517,87.6342,-0.00067844,-8.189e-05,0.0,0 STARLINK-5523,1 56470U 23064Y   23298.59943898 -.00008189  00000-0 -67844-3 0  9996,2 56470  69.9994 148.3264 0002621 272.4517  87.6342 14.98381116 26366,6950.035,96.104,573.721,570.078,0.0
56470.0,STARLINK-5523,PAYLOAD,2023-10-25 22:23:52,14.98364874,0.000289,69.9995,147.4849,274.8092,85.2737,-0.00077723,-9.363e-05,0.0,0 STARLINK-5523,1 56470U 23064Y   23298.93324312 -.00009363  00000-0 -77723-3 0  9990,2 56470  69.9995 147.4849 0002890 274.8092  85.2737 14.98364874 26058,6950.085,96.105,573.959,569.941,0.0
56470.0,STARLINK-5523,PAYLOAD,2023-10-26 00:00:00,14.98318746,0.0002682,69.9992,147.3167,269.7159,90.3692,8.2117e-06,5e-08,0.0,0 STARLINK-5523,1 56470U 23064Y   23299.00000815  .00000005  00000-0  82117-5 0  9995,2 56470  69.9992 147.3167 0002682 269.7159  90.3692 14.98318746 26428,6950.228,96.108,573.957,570.229,0.0
56470.0,STARLINK-5523,PAYLOAD,2023-10-26 14:25:12,14.98332567,0.0003173,69.9982,145.8023,269.081,90.9986,-7.4695e-05,-9.84e-06,0.0,0 STARLINK-5523,1 56470U 23064Y   23299.60084058 -.00000984  00000-0 -74695-4 0  9991,2 56470  69.9982 145.8023 0003173 269.0810  90.9986 14.98332567 26153,6950.185,96.107,574.255,569.845,0.0
56470.0,STARLINK-5523,PAYLOAD,2023-10-26 20:49:29,14.98542816,0.0003885,69.9995,145.1295,263.3044,96.7673,0.0021781,0.00026138,0.0,0 STARLINK-5523,1 56470U 23064Y   23299.86769718  .00026138  00000-0  21781-2 0  9995,2 56470  69.9995 145.1295 0003885 263.3044  96.7673 14.98542816 26198,6949.535,96.093,574.1,568.7,0.0
56470.0,STARLINK-5523,PAYLOAD,2023-10-27 00:02:00,14.98336375,0.0003802,69.999,144.793,258.4655,101.6077,-0.00014417,-1.813e-05,0.0,0 STARLINK-5523,1 56470U 23064Y   23300.00139543 -.00001813  00000-0 -14417-3 0  9995,2 56470  69.9990 144.7930 0003802 258.4655 101.6077 14.98336375 26573,6950.173,96.107,574.681,569.396,0.0
56470.0,STARLINK-5523,PAYLOAD,2023-10-27 12:51:05,14.98326247,0.0002796,69.9981,143.4462,272.1285,87.9553,5.8345e-05,6.03e-06,0.0,0 STARLINK-5523,1 56470U 23064Y   23300.53547747  .00000603  00000-0  58345-4 0  9995,2 56470  69.9981 143.4462 0002796 272.1285  87.9553 14.98326247 26293,6950.204,96.107,574.013,570.126,0.0
56470.0,STARLINK-5523,PAYLOAD,2023-10-27 22:27:53,14.98327539,0.0002782,69.998,142.4361,273.1179,86.9661,6.6384e-05,6.99e-06,0.0,0 STARLINK-5523,1 56470U 23064Y   23300.93603708  .00000699  00000-0  66384-4 0  9996,2 56470  69.9980 142.4361 0002782 273.1179  86.9661 14.98327539 26358,6950.201,96.107,573.999,570.132,0.0
56470.0,STARLINK-5523,PAYLOAD,2023-10-28 00:04:01,14.98327352,0.0002923,69.9982,142.2679,272.7055,87.3769,7.6694e-05,8.22e-06,0.0,0 STARLINK-5523,1 56470U 23064Y   23301.00279679  .00000822  00000-0  76694-4 0  9994,2 56470  69.9982 142.2679 0002923 272.7055  87.3769 14.98327352 26723,6950.201,96.107,574.098,570.035,0.0
56470.0,STARLINK-5523,PAYLOAD,2023-10-28 06:28:34,14.9831645,0.0002809,69.9981,141.5947,270.4986,89.5851,0.0001908,2.183e-05,0.0,0 STARLINK-5523,1 56470U 23064Y   23301.26984178  .00002183  00000-0  19080-3 0  9996,2 56470  69.9981 141.5947 0002809 270.4986  89.5851 14.98316450 26760,6950.235,96.108,574.052,570.147,0.0
56470.0,STARLINK-5523,PAYLOAD,2023-10-28 14:29:14,14.9832906,0.0002974,69.9979,140.7533,269.8155,90.2663,-3.0048e-05,-4.52e-06,0.0,0 STARLINK-5523,1 56470U 23064Y   23301.60363915 -.00000452  00000-0 -30048-4 0  9991,2 56470  69.9979 140.7533 0002974 269.8155  90.2663 14.98329060 26459,6950.196,96.107,574.128,569.994,0.0
56470.0,STARLINK-5523,PAYLOAD,2023-10-28 20:53:46,14.98332264,0.000286,69.9978,140.08,268.9037,91.1795,-5.7648e-05,-7.81e-06,0.0,0 STARLINK-5523,1 56470U 23064Y   23301.87067779 -.00000781  00000-0 -57648-4 0  9999,2 56470  69.9978 140.0800 0002860 268.9037  91.1795 14.98332264 26851,6950.186,96.107,574.039,570.063,0.0
56470.0,STARLINK-5523,PAYLOAD,2023-10-28 22:29:54,14.98334708,0.0002863,69.9979,139.9116,269.2259,90.8572,-8.8928e-05,-1.154e-05,0.0,0 STARLINK-5523,1 56470U 23064Y   23301.93743694 -.00001154  00000-0 -88928-4 0  9993,2 56470  69.9979 139.9116 0002863 269.2259  90.8572 14.98334708 26508,6950.178,96.107,574.033,570.053,0.0
56470.0,STARLINK-5523,PAYLOAD,2023-10-29 12:55:07,14.98330101,0.0002869,69.9979,138.3964,268.7857,91.2973,-1.4865e-06,-1.11e-06,0.0,0 STARLINK-5523,1 56470U 23064Y   23302.53827769 -.00000111  00000-0 -14865-5 0  9998,2 56470  69.9979 138.3964 0002869 268.7857  91.2973 14.98330101 26598,6950.193,96.107,574.052,570.064,0.0
56470.0,STARLINK-5523,PAYLOAD,2023-10-29 22:31:55,14.98329883,0.0002898,69.9979,137.3861,269.5747,90.508,-9.9775e-06,-2.12e-06,0.0,0 STARLINK-5523,1 56470U 23064Y   23302.93883791 -.00000212  00000-0 -99775-5 0  9994,2 56470  69.9979 137.3861 0002898 269.5747  90.5080 14.98329883 26655,6950.193,96.107,574.072,570.044,0.0
56470.0,STARLINK-5523,PAYLOAD,2023-10-30 20:57:48,14.98324017,0.0002854,69.9984,135.0292,264.4915,95.5919,8.331e-05,9.01e-06,0.0,0 STARLINK-5523,1 56470U 23064Y   23303.87347912  .00000901  00000-0  83310-4 0  9998,2 56470  69.9984 135.0292 0002854 264.4915  95.5919 14.98324017 26792,6950.211,96.107,574.06,570.093,0.0
56470.0,STARLINK-5523,PAYLOAD,2023-10-31 12:59:09,14.983302,0.0002951,69.9991,133.3469,270.6616,89.4205,5.1922e-06,-3.1e-07,0.0,0 STARLINK-5523,1 56470U 23064Y   23304.54107797 -.00000031  00000-0  51922-5 0  9998,2 56470  69.9991 133.3469 0002951 270.6616  89.4205 14.98330200 27255,6950.192,96.107,574.108,570.006,0.0
56470.0,STARLINK-5523,PAYLOAD,2023-10-31 14:35:17,14.98329843,0.0003,69.9986,133.1782,269.9546,90.1269,2.0605e-05,1.53e-06,0.0,0 STARLINK-5523,1 56470U 23064Y   23304.60783730  .00000153  00000-0  20605-4 0  9999,2 56470  69.9986 133.1782 0003000 269.9546  90.1269 14.98329843 26905,6950.193,96.107,574.143,569.973,0.0
